{
  "type": "FeatureCollection",
  "features": [
    {
      "type": "Feature",
      "properties": {
        "norad_id": 29945,
        "name": "FENGYUN 1C DEB",
        "group": "fengyun-1c-debris",
        "lat": -18.498229464413182,
        "lon": 17.07252238515619,
        "alt_km": 857.5756965801529,
        "timestamp": "2025-12-16T13:52:37.795845+00:00",
        "meta_object_name": "FENGYUN 1C DEB",
        "meta_object_id": "1999-025JT",
        "meta_epoch": "2025-12-15T22:53:45.872160",
        "meta_mean_motion": 14.05572965,
        "meta_eccentricity": 0.0030734,
        "meta_inclination": 98.7916,
        "meta_ra_of_asc_node": 13.4993,
        "meta_arg_of_pericenter": 353.3347,
        "meta_mean_anomaly": 71.3142,
        "meta_ephemeris_type": 0,
        "meta_classification_type": "U",
        "meta_norad_cat_id": 29945,
        "meta_element_set_no": 999,
        "meta_rev_at_epoch": 97023,
        "meta_bstar": 0.00016684194,
        "meta_mean_motion_dot": 2.3e-06,
        "meta_mean_motion_ddot": 0,
        "tle_line1": "1 29945U 99025JT  25349.95400315  .00000230  00000+0  16684-3 0  9996",
        "tle_line2": "2 29945  98.7916  13.4993 0030734 353.3347  71.3142 14.05572965970238"
      },
      "geometry": {
        "type": "Point",
        "coordinates": [
          17.07252238515619,
          -18.498229464413182
        ]
      }
    },
    {
      "type": "Feature",
      "properties": {
        "norad_id": 29946,
        "name": "FENGYUN 1C DEB",
        "group": "fengyun-1c-debris",
        "lat": 40.23928154260807,
        "lon": -24.799962017780633,
        "alt_km": 840.1198385368298,
        "timestamp": "2025-12-16T13:52:37.795855+00:00",
        "meta_object_name": "FENGYUN 1C DEB",
        "meta_object_id": "1999-025JU",
        "meta_epoch": "2025-12-15T22:38:27.786624",
        "meta_mean_motion": 14.08257544,
        "meta_eccentricity": 0.00805297,
        "meta_inclination": 98.7799,
        "meta_ra_of_asc_node": 342.0972,
        "meta_arg_of_pericenter": 334.4315,
        "meta_mean_anomaly": 88.9471,
        "meta_ephemeris_type": 0,
        "meta_classification_type": "U",
        "meta_norad_cat_id": 29946,
        "meta_element_set_no": 999,
        "meta_rev_at_epoch": 97092,
        "meta_bstar": 0.000267986,
        "meta_mean_motion_dot": 4.28e-06,
        "meta_mean_motion_ddot": 0,
        "tle_line1": "1 29946U 99025JU  25349.94337716  .00000428  00000+0  26799-3 0  9997",
        "tle_line2": "2 29946  98.7799 342.0972 0080529 334.4315  88.9471 14.08257544970929"
      },
      "geometry": {
        "type": "Point",
        "coordinates": [
          -24.799962017780633,
          40.23928154260807
        ]
      }
    },
    {
      "type": "Feature",
      "properties": {
        "norad_id": 29947,
        "name": "FENGYUN 1C DEB",
        "group": "fengyun-1c-debris",
        "lat": -50.95911311527542,
        "lon": 32.079010614233795,
        "alt_km": 918.2947971678514,
        "timestamp": "2025-12-16T13:52:37.795864+00:00",
        "meta_object_name": "FENGYUN 1C DEB",
        "meta_object_id": "1999-025JV",
        "meta_epoch": "2025-12-15T13:11:10.555872",
        "meta_mean_motion": 14.03072101,
        "meta_eccentricity": 0.00409073,
        "meta_inclination": 98.837,
        "meta_ra_of_asc_node": 20.0207,
        "meta_arg_of_pericenter": 113.1678,
        "meta_mean_anomaly": 41.6392,
        "meta_ephemeris_type": 0,
        "meta_classification_type": "U",
        "meta_norad_cat_id": 29947,
        "meta_element_set_no": 999,
        "meta_rev_at_epoch": 96789,
        "meta_bstar": 0.00045305125,
        "meta_mean_motion_dot": 6.67e-06,
        "meta_mean_motion_ddot": 0,
        "tle_line1": "1 29947U 99025JV  25349.54942773  .00000667  00000+0  45305-3 0  9998",
        "tle_line2": "2 29947  98.8370  20.0207 0040907 113.1678  41.6392 14.03072101967899"
      },
      "geometry": {
        "type": "Point",
        "coordinates": [
          32.079010614233795,
          -50.95911311527542
        ]
      }
    },
    {
      "type": "Feature",
      "properties": {
        "norad_id": 29948,
        "name": "FENGYUN 1C DEB",
        "group": "fengyun-1c-debris",
        "lat": -37.35678377591532,
        "lon": 149.84791693759794,
        "alt_km": 818.1729839014561,
        "timestamp": "2025-12-16T13:52:37.795931+00:00",
        "meta_object_name": "FENGYUN 1C DEB",
        "meta_object_id": "1999-025JW",
        "meta_epoch": "2025-12-15T21:45:55.025568",
        "meta_mean_motion": 14.06194082,
        "meta_eccentricity": 0.00838259,
        "meta_inclination": 98.8242,
        "meta_ra_of_asc_node": 336.0038,
        "meta_arg_of_pericenter": 224.6172,
        "meta_mean_anomaly": 196.6685,
        "meta_ephemeris_type": 0,
        "meta_classification_type": "U",
        "meta_norad_cat_id": 29948,
        "meta_element_set_no": 999,
        "meta_rev_at_epoch": 97021,
        "meta_bstar": 0.00027221029,
        "meta_mean_motion_dot": 4.19e-06,
        "meta_mean_motion_ddot": 0,
        "tle_line1": "1 29948U 99025JW  25349.90688687  .00000419  00000+0  27221-3 0  9992",
        "tle_line2": "2 29948  98.8242 336.0038 0083825 224.6172 196.6685 14.06194082970215"
      },
      "geometry": {
        "type": "Point",
        "coordinates": [
          149.84791693759794,
          -37.35678377591532
        ]
      }
    },
    {
      "type": "Feature",
      "properties": {
        "norad_id": 29949,
        "name": "FENGYUN 1C DEB",
        "group": "fengyun-1c-debris",
        "lat": 0.3955001800579749,
        "lon": -173.79624558073382,
        "alt_km": 880.1160910197477,
        "timestamp": "2025-12-16T13:52:37.795945+00:00",
        "meta_object_name": "FENGYUN 1C DEB",
        "meta_object_id": "1999-025JX",
        "meta_epoch": "2025-12-15T20:32:40.254144",
        "meta_mean_motion": 14.06827299,
        "meta_eccentricity": 0.0023148,
        "meta_inclination": 98.7622,
        "meta_ra_of_asc_node": 5.4432,
        "meta_arg_of_pericenter": 296.383,
        "meta_mean_anomaly": 187.7659,
        "meta_ephemeris_type": 0,
        "meta_classification_type": "U",
        "meta_norad_cat_id": 29949,
        "meta_element_set_no": 999,
        "meta_rev_at_epoch": 97151,
        "meta_bstar": 0.00015799168,
        "meta_mean_motion_dot": 2.21e-06,
        "meta_mean_motion_ddot": 0,
        "tle_line1": "1 29949U 99025JX  25349.85602146  .00000221  00000+0  15799-3 0  9991",
        "tle_line2": "2 29949  98.7622   5.4432 0023148 296.3830 187.7659 14.06827299971510"
      },
      "geometry": {
        "type": "Point",
        "coordinates": [
          -173.79624558073382,
          0.3955001800579749
        ]
      }
    },
    {
      "type": "Feature",
      "properties": {
        "norad_id": 29950,
        "name": "FENGYUN 1C DEB",
        "group": "fengyun-1c-debris",
        "lat": 62.28156818328035,
        "lon": 4.522329125271054,
        "alt_km": 875.0143230399171,
        "timestamp": "2025-12-16T13:52:37.795956+00:00",
        "meta_object_name": "FENGYUN 1C DEB",
        "meta_object_id": "1999-025JY",
        "meta_epoch": "2025-12-15T22:34:45.737760",
        "meta_mean_motion": 14.10335576,
        "meta_eccentricity": 0.00324276,
        "meta_inclination": 98.7408,
        "meta_ra_of_asc_node": 20.9289,
        "meta_arg_of_pericenter": 232.7776,
        "meta_mean_anomaly": 196.4962,
        "meta_ephemeris_type": 0,
        "meta_classification_type": "U",
        "meta_norad_cat_id": 29950,
        "meta_element_set_no": 999,
        "meta_rev_at_epoch": 97336,
        "meta_bstar": 0.00010958402,
        "meta_mean_motion_dot": 1.52e-06,
        "meta_mean_motion_ddot": 0,
        "tle_line1": "1 29950U 99025JY  25349.94080715  .00000152  00000+0  10958-3 0  9990",
        "tle_line2": "2 29950  98.7408  20.9289 0032427 232.7776 196.4962 14.10335576973365"
      },
      "geometry": {
        "type": "Point",
        "coordinates": [
          4.522329125271054,
          62.28156818328035
        ]
      }
    },
    {
      "type": "Feature",
      "properties": {
        "norad_id": 29953,
        "name": "FENGYUN 1C DEB",
        "group": "fengyun-1c-debris",
        "lat": -78.97135913491665,
        "lon": 103.50679646464339,
        "alt_km": 856.4679604962685,
        "timestamp": "2025-12-16T13:52:37.795966+00:00",
        "meta_object_name": "FENGYUN 1C DEB",
        "meta_object_id": "1999-025KB",
        "meta_epoch": "2025-12-15T23:04:25.625280",
        "meta_mean_motion": 13.90850691,
        "meta_eccentricity": 0.01055724,
        "meta_inclination": 98.9375,
        "meta_ra_of_asc_node": 336.7572,
        "meta_arg_of_pericenter": 257.7975,
        "meta_mean_anomaly": 158.8402,
        "meta_ephemeris_type": 0,
        "meta_classification_type": "U",
        "meta_norad_cat_id": 29953,
        "meta_element_set_no": 999,
        "meta_rev_at_epoch": 95907,
        "meta_bstar": 0.0004336071,
        "meta_mean_motion_dot": 5.25e-06,
        "meta_mean_motion_ddot": 0,
        "tle_line1": "1 29953U 99025KB  25349.96140770  .00000525  00000+0  43361-3 0  9991",
        "tle_line2": "2 29953  98.9375 336.7572 0105572 257.7975 158.8402 13.90850691959076"
      },
      "geometry": {
        "type": "Point",
        "coordinates": [
          103.50679646464339,
          -78.97135913491665
        ]
      }
    }
  ]
}